<?xml version='1.0' encoding='UTF-8'?>
<osm version="0.6" generator="Osmosis 0.45">
  <bounds minlon="-1.55982" minlat="53.78335" maxlon="-1.50517" maxlat="53.81391" origin="0.45"/>
  <node id="42397281" version="5" timestamp="2018-02-01T17:00:58Z" uid="592" user="JonS" changeset="55971486" lat="53.8045824" lon="-1.556595">
    <tag k="addr:postcode" v="LS2 9NH"/>
    <tag k="addr:street" v="Seminary Street"/>
    <tag k="amenity" v="cafe"/>
    <tag k="fhrs:id" v="321436"/>
    <tag k="name" v="Cafe In The Campus"/>
    <tag k="old_name" v="Adams Lodge"/>
    <tag k="postal_code" v="LS2 9NH"/>
  </node>
  <node id="44969921" version="7" timestamp="2018-01-22T13:18:01Z" uid="592" user="JonS" changeset="55654547" lat="53.7974635" lon="-1.5450317">
    <tag k="addr:city" v="Leeds"/>
    <tag k="addr:housenumber" v="48"/>
    <tag k="addr:postcode" v="LS1 6AB"/>
    <tag k="addr:street" v="Albion Street"/>
    <tag k="amenity" v="cafe"/>
    <tag k="fhrs:id" v="871565"/>
    <tag k="name" v="Starbucks"/>
  </node>
  <node id="54070619" version="6" timestamp="2018-01-30T14:56:50Z" uid="592" user="JonS" changeset="55896644" lat="53.8076474" lon="-1.5516371">
    <tag k="addr:housenumber" v="26"/>
    <tag k="addr:postcode" v="LS2 9HD"/>
    <tag k="addr:street" v="Blenheim Terrace"/>
    <tag k="amenity" v="cafe"/>
    <tag k="contact:website" v="http://www.oppositecafe.co.uk/"/>
    <tag k="fhrs:id" v="1007026"/>
    <tag k="name" v="Opposite"/>
    <tag k="opening_hours" v="Mo-Fr 08:00-18:00; Sa 09:00-17:00"/>
    <tag k="source" v="knowledge; Bing"/>
  </node>
  <node id="313240579" version="1" timestamp="2008-11-19T23:47:14Z" uid="2330" user="LeedsTracker" changeset="771490" lat="53.7945013" lon="-1.5538378">
    <tag k="name" v="The Roast Café"/>
    <tag k="amenity" v="cafe"/>
  </node>
  <node id="317087661" version="5" timestamp="2016-08-23T09:02:11Z" uid="4015714" user="SkaBook" changeset="41632961" lat="53.7946995" lon="-1.5379691">
    <tag k="name" v="Coffee 44"/>
    <tag k="amenity" v="cafe"/>
    <tag k="addr:city" v="Leeds"/>
    <tag k="addr:street" v="The Calls"/>
    <tag k="addr:housenumber" v="44"/>
  </node>
  <node id="317094565" version="2" timestamp="2012-09-01T12:39:39Z" uid="99476" user="spod" changeset="12942054" lat="53.7899408" lon="-1.5316844">
    <tag k="name" v="The Roast"/>
    <tag k="amenity" v="cafe"/>
  </node>
  <node id="320998122" version="4" timestamp="2018-01-29T15:59:46Z" uid="592" user="JonS" changeset="55864010" lat="53.7960931" lon="-1.5387167">
    <tag k="addr:city" v="Leeds"/>
    <tag k="addr:housenumber" v="92"/>
    <tag k="addr:postcode" v="LS2 7DJ"/>
    <tag k="addr:street" v="Kirkgate"/>
    <tag k="amenity" v="cafe"/>
    <tag k="fhrs:id" v="877768"/>
    <tag k="name" v="Wapentake"/>
  </node>
  <node id="320998155" version="3" timestamp="2016-08-23T10:00:27Z" uid="4015714" user="SkaBook" changeset="41634042" lat="53.7961182" lon="-1.5398444">
    <tag k="name" v="Kada&apos;s"/>
    <tag k="amenity" v="cafe"/>
    <tag k="addr:city" v="Leeds"/>
    <tag k="addr:street" v="Crown Street"/>
  </node>
  <node id="332484033" version="2" timestamp="2017-10-17T10:38:52Z" uid="592" user="JonS" changeset="53007498" lat="53.7872134" lon="-1.5412742">
    <tag k="addr:postcode" v="LS10 1ET"/>
    <tag k="amenity" v="cafe"/>
    <tag k="fhrs:id" v="322007"/>
    <tag k="name" v="Costa"/>
  </node>
  <node id="333452822" version="5" timestamp="2017-10-13T11:19:20Z" uid="592" user="JonS" changeset="52887824" lat="53.7965135" lon="-1.5398982">
    <tag k="addr:city" v="Leeds"/>
    <tag k="addr:housenumber" v="2"/>
    <tag k="addr:postcode" v="LS1 6DN"/>
    <tag k="addr:street" v="Call Lane"/>
    <tag k="amenity" v="cafe"/>
    <tag k="fhrs:id" v="859234"/>
    <tag k="name" v="Istanbul Cafe"/>
  </node>
  <node id="333799019" version="3" timestamp="2018-01-22T13:18:02Z" uid="592" user="JonS" changeset="55654547" lat="53.7987738" lon="-1.5422386">
    <tag k="addr:city" v="Leeds"/>
    <tag k="addr:housenumber" v="79"/>
    <tag k="addr:postcode" v="LS1 6LH"/>
    <tag k="addr:street" v="Briggate"/>
    <tag k="amenity" v="cafe"/>
    <tag k="fhrs:id" v="877762"/>
    <tag k="name" v="Starbucks"/>
  </node>
  <node id="333799082" version="5" timestamp="2018-01-24T12:51:35Z" uid="592" user="JonS" changeset="55711975" lat="53.7998775" lon="-1.5462481">
    <tag k="addr:city" v="Leeds"/>
    <tag k="addr:housename" v="The Light"/>
    <tag k="addr:postcode" v="LS1 8TL"/>
    <tag k="addr:street" v="The Headrow"/>
    <tag k="addr:unit" v="64"/>
    <tag k="amenity" v="cafe"/>
    <tag k="fhrs:id" v="913383"/>
    <tag k="name" v="Starbucks"/>
    <tag k="wheelchair" v="yes"/>
  </node>
  <node id="343124352" version="2" timestamp="2017-08-01T16:31:37Z" uid="873940" user="Mike Baggaley" changeset="50757688" lat="53.7942004" lon="-1.5418616">
    <tag k="amenity" v="cafe"/>
    <tag k="name" v="Riveresque Cafe Bar"/>
  </node>
  <node id="343131661" version="2" timestamp="2018-01-30T14:56:52Z" uid="592" user="JonS" changeset="55896644" lat="53.8017582" lon="-1.5450517">
    <tag k="addr:city" v="Leeds"/>
    <tag k="addr:housenumber" v="42-44"/>
    <tag k="addr:postcode" v="LS2 8LX"/>
    <tag k="addr:street" v="Woodhouse Lane"/>
    <tag k="amenity" v="cafe"/>
    <tag k="fhrs:id" v="321676"/>
    <tag k="name" v="Costa"/>
  </node>
  <node id="354726141" version="4" timestamp="2018-03-16T11:51:53Z" uid="592" user="JonS" changeset="57239365" lat="53.8103392" lon="-1.5556636">
    <tag k="addr:city" v="Leeds"/>
    <tag k="addr:housenumber" v="206"/>
    <tag k="addr:postcode" v="LS2 9DX"/>
    <tag k="addr:street" v="Woodhouse Lane"/>
    <tag k="amenity" v="cafe"/>
    <tag k="fhrs:id" v="946028"/>
    <tag k="name" v="Cafe Caldo"/>
    <tag k="source:addr" v="FHRS Open Data"/>
  </node>
  <node id="354734708" version="2" timestamp="2012-03-01T03:17:28Z" uid="605122" user="neiljp" changeset="10834241" lat="53.8103631" lon="-1.5577179">
    <tag k="name" v="Rendez-Vous Cafe"/>
    <tag k="amenity" v="cafe"/>
  </node>
  <node id="357708656" version="5" timestamp="2018-01-23T14:27:36Z" uid="592" user="JonS" changeset="55685636" lat="53.7958921" lon="-1.5448893">
    <tag k="addr:city" v="Leeds"/>
    <tag k="addr:housenumber" v="58"/>
    <tag k="addr:postcode" v="LS1 6HW"/>
    <tag k="addr:street" v="Boar Lane"/>
    <tag k="amenity" v="cafe"/>
    <tag k="fhrs:id" v="320994"/>
    <tag k="name" v="Caffè Nero"/>
  </node>
  <node id="357722182" version="3" timestamp="2018-01-30T14:56:52Z" uid="592" user="JonS" changeset="55896644" lat="53.7986302" lon="-1.5541531">
    <tag k="addr:housename" v="Carlton Tower"/>
    <tag k="addr:housenumber" v="34"/>
    <tag k="addr:postcode" v="LS1 2QB"/>
    <tag k="addr:street" v="St Paul&apos;s Street"/>
    <tag k="addr:unit" v="1"/>
    <tag k="amenity" v="cafe"/>
    <tag k="fhrs:id" v="321438"/>
    <tag k="fixme:addr3" v="Leeds"/>
    <tag k="name" v="Bagel Nash"/>
  </node>
  <node id="357744111" version="4" timestamp="2018-01-30T14:56:52Z" uid="592" user="JonS" changeset="55896644" lat="53.7970501" lon="-1.5564061">
    <tag k="addr:city" v="Leeds"/>
    <tag k="addr:housename" v="West One"/>
    <tag k="addr:housenumber" v="114"/>
    <tag k="addr:postcode" v="LS1 1BA"/>
    <tag k="addr:street" v="Wellington Street"/>
    <tag k="addr:unit" v="A"/>
    <tag k="amenity" v="cafe"/>
    <tag k="fhrs:id" v="973642"/>
    <tag k="name" v="Starbucks"/>
  </node>
  <node id="357744119" version="2" timestamp="2009-03-09T12:59:46Z" uid="2330" user="LeedsTracker" changeset="770076" lat="53.7982138" lon="-1.5531511">
    <tag k="name" v="Cafe &amp; Sandwich Bar"/>
    <tag k="amenity" v="cafe"/>
  </node>
  <node id="357751907" version="1" timestamp="2009-03-09T03:48:06Z" uid="2330" user="LeedsTracker" changeset="766946" lat="53.8011111" lon="-1.5529075">
    <tag k="name" v="Cafe Centro"/>
    <tag k="amenity" v="cafe"/>
  </node>
  <node id="357751912" version="2" timestamp="2011-02-14T00:35:52Z" uid="2330" user="LeedsTracker" changeset="7282224" lat="53.8010127" lon="-1.5520074">
    <tag k="name" v="Grain"/>
    <tag k="amenity" v="cafe"/>
  </node>
  <node id="357751915" version="2" timestamp="2011-02-14T00:36:10Z" uid="2330" user="LeedsTracker" changeset="7282224" lat="53.8009924" lon="-1.5518384">
    <tag k="name" v="Deli Fifty Nine"/>
    <tag k="amenity" v="cafe"/>
  </node>
  <node id="357751920" version="4" timestamp="2018-02-01T17:01:00Z" uid="592" user="JonS" changeset="55971486" lat="53.8009723" lon="-1.551406">
    <tag k="addr:housenumber" v="51"/>
    <tag k="addr:postcode" v="LS1 3BB"/>
    <tag k="addr:street" v="Great George Street"/>
    <tag k="amenity" v="cafe"/>
    <tag k="fhrs:id" v="941340"/>
    <tag k="name" v="Union Coffee House"/>
  </node>
  <node id="607013183" version="3" timestamp="2017-10-13T13:06:10Z" uid="592" user="JonS" changeset="52892139" lat="53.791611" lon="-1.5535381">
    <tag k="addr:city" v="Leeds"/>
    <tag k="addr:housenumber" v="113"/>
    <tag k="addr:postcode" v="LS11 5WD"/>
    <tag k="addr:street" v="Water Lane"/>
    <tag k="amenity" v="cafe"/>
    <tag k="fhrs:id" v="322625"/>
    <tag k="name" v="Out of the Woods"/>
  </node>
  <node id="747541982" version="5" timestamp="2018-02-01T17:01:02Z" uid="592" user="JonS" changeset="55971486" lat="53.7978559" lon="-1.5465506">
    <tag k="addr:housename" v="Trinity Leeds"/>
    <tag k="addr:postcode" v="LS1 5AT"/>
    <tag k="addr:street" v="Albion Street"/>
    <tag k="addr:unit" v="326"/>
    <tag k="amenity" v="cafe"/>
    <tag k="fhrs:id" v="783818"/>
    <tag k="name" v="Caffè Nero"/>
  </node>
  <node id="960635570" version="2" timestamp="2018-01-29T13:16:23Z" uid="592" user="JonS" changeset="55859325" lat="53.8027303" lon="-1.5302921">
    <tag k="addr:city" v="Leeds"/>
    <tag k="addr:housenumber" v="95-97"/>
    <tag k="addr:postcode" v="LS9 7DR"/>
    <tag k="addr:street" v="Mabgate"/>
    <tag k="amenity" v="cafe"/>
    <tag k="fhrs:id" v="760693"/>
    <tag k="name" v="Hot Roast Cabin"/>
  </node>
  <node id="963593319" version="1" timestamp="2010-10-24T16:41:45Z" uid="21264" user="Pobice" changeset="6158788" lat="53.8037144" lon="-1.5293585">
    <tag k="name" v="World Football"/>
    <tag k="amenity" v="cafe"/>
  </node>
  <node id="1187324680" version="5" timestamp="2018-02-23T16:55:03Z" uid="592" user="JonS" changeset="56615012" lat="53.8082862" lon="-1.5520564">
    <tag k="addr:city" v="Leeds"/>
    <tag k="addr:housenumber" v="164"/>
    <tag k="addr:postcode" v="LS2 9HB"/>
    <tag k="addr:street" v="Woodhouse Lane"/>
    <tag k="amenity" v="cafe"/>
    <tag k="fhrs:id" v="1003011"/>
    <tag k="name" v="Bakery 164"/>
    <tag k="note" v="Newer cafes than Opposite, forget the names"/>
    <tag k="source:addr" v="FHRS Open Data"/>
  </node>
  <node id="1187324681" version="3" timestamp="2018-02-23T16:55:03Z" uid="592" user="JonS" changeset="56615012" lat="53.8078111" lon="-1.5518779">
    <tag k="addr:city" v="Leeds"/>
    <tag k="addr:housenumber" v="29"/>
    <tag k="addr:postcode" v="LS2 9HD"/>
    <tag k="addr:street" v="Blenheim Terrace"/>
    <tag k="amenity" v="cafe"/>
    <tag k="fhrs:id" v="322620"/>
    <tag k="name" v="Cafe Miro"/>
    <tag k="note" v="Newer cafes than Opposite, forget the names"/>
  </node>
  <node id="1256721383" version="4" timestamp="2018-03-20T16:17:41Z" uid="592" user="JonS" changeset="57358079" lat="53.7953646" lon="-1.5480733">
    <tag k="addr:city" v="Leeds"/>
    <tag k="addr:housename" v="City Station"/>
    <tag k="addr:postcode" v="LS1 4DT"/>
    <tag k="addr:street" v="New Station Street"/>
    <tag k="amenity" v="cafe"/>
    <tag k="fhrs:id" v="321013"/>
    <tag k="name" v="Starbucks"/>
    <tag k="wheelchair" v="yes"/>
  </node>
  <node id="1313886881" version="2" timestamp="2012-10-15T19:44:33Z" uid="45820" user="Paper" changeset="13510639" lat="53.8034433" lon="-1.5555033">
    <tag k="name" v="Café 7"/>
    <tag k="amenity" v="cafe"/>
    <tag k="cuisine" v="sandwich"/>
  </node>
  <node id="1562986882" version="1" timestamp="2011-12-26T22:03:45Z" uid="574183" user="ehouk1" changeset="10210929" lat="53.7969938" lon="-1.5386452">
    <tag k="amenity" v="cafe"/>
  </node>
  <node id="1563017292" version="6" timestamp="2016-10-26T09:29:42Z" uid="524500" user="wheelmap_android" changeset="43186326" lat="53.8055309" lon="-1.5546889">
    <tag k="name" v="Dolce Vita"/>
    <tag k="level" v="10"/>
    <tag k="amenity" v="cafe"/>
    <tag k="wheelchair" v="yes"/>
    <tag k="toilets:wheelchair" v="no"/>
  </node>
  <node id="1563017310" version="5" timestamp="2016-10-26T09:29:53Z" uid="524500" user="wheelmap_android" changeset="43186326" lat="53.8048655" lon="-1.5545495">
    <tag k="name" v="Waterside Café"/>
    <tag k="level" v="6"/>
    <tag k="amenity" v="cafe"/>
    <tag k="wheelchair" v="yes"/>
    <tag k="toilets:wheelchair" v="yes"/>
  </node>
  <node id="1725285378" version="3" timestamp="2018-02-23T16:55:04Z" uid="592" user="JonS" changeset="56615012" lat="53.8076979" lon="-1.5517437">
    <tag k="addr:city" v="Leeds"/>
    <tag k="addr:housenumber" v="28"/>
    <tag k="addr:postcode" v="LS2 9HD"/>
    <tag k="addr:street" v="Blenheim Terrace"/>
    <tag k="amenity" v="cafe"/>
    <tag k="fhrs:id" v="323363"/>
    <tag k="name" v="Coffee RAND"/>
    <tag k="source" v="knowledge; Bing"/>
  </node>
  <node id="1725292395" version="1" timestamp="2012-04-21T12:43:27Z" uid="605122" user="neiljp" changeset="11373303" lat="53.8079028" lon="-1.5519205">
    <tag k="name" v="Froth &amp; Fodder"/>
    <tag k="amenity" v="cafe"/>
  </node>
  <node id="1852211295" version="5" timestamp="2017-10-17T10:38:52Z" uid="592" user="JonS" changeset="53007498" lat="53.7936108" lon="-1.5372815">
    <tag k="addr:city" v="Leeds"/>
    <tag k="addr:housenumber" v="5b"/>
    <tag k="addr:postcode" v="LS10 1NE"/>
    <tag k="addr:street" v="Brewery Place"/>
    <tag k="amenity" v="cafe"/>
    <tag k="contact:website" v="http://www.brewerywharf.net/relaxing/yum-yum"/>
    <tag k="fhrs:id" v="321365"/>
    <tag k="name" v="Yum Yum"/>
    <tag k="phone" v="+44 7917 194516"/>
  </node>
  <node id="1862252929" version="1" timestamp="2012-08-11T22:32:33Z" uid="2330" user="LeedsTracker" changeset="12696590" lat="53.8008294" lon="-1.5501459">
    <tag k="name" v="Behind The Town Hall"/>
    <tag k="shop" v="alcohol"/>
    <tag k="amenity" v="cafe"/>
  </node>
  <node id="1862252937" version="7" timestamp="2018-03-12T16:54:55Z" uid="592" user="JonS" changeset="57117270" lat="53.8000142" lon="-1.5487072">
    <tag k="addr:postcode" v="LS1 3AA"/>
    <tag k="amenity" v="cafe"/>
    <tag k="fhrs:id" v="1007035"/>
    <tag k="name" v="Tiled Hall Cafe"/>
    <tag k="wheelchair" v="yes"/>
  </node>
  <node id="1934243496" version="2" timestamp="2012-09-26T20:28:33Z" uid="45820" user="Paper" changeset="13264490" lat="53.8074782" lon="-1.5537441">
    <tag k="name" v="Baines Café"/>
    <tag k="level" v="11"/>
    <tag k="amenity" v="cafe"/>
  </node>
  <node id="1934244005" version="2" timestamp="2014-06-18T11:09:56Z" uid="3114" user="chippy" changeset="23002342" lat="53.8080686" lon="-1.5526773">
    <tag k="name" v="Parkinson Court Costa"/>
    <tag k="amenity" v="cafe"/>
  </node>
  <node id="1991375011" version="1" timestamp="2012-10-31T20:19:14Z" uid="45820" user="Paper" changeset="13704077" lat="53.8103208" lon="-1.5566672">
    <tag k="name" v="Cafe Maia"/>
    <tag k="amenity" v="cafe"/>
  </node>
  <node id="2041628061" version="1" timestamp="2012-11-30T09:26:33Z" uid="45820" user="Paper" changeset="14096386" lat="53.8054771" lon="-1.5531923">
    <tag k="name" v="Physics Coffee Bar"/>
    <tag k="level" v="9"/>
    <tag k="amenity" v="cafe"/>
  </node>
  <node id="2125610526" version="2" timestamp="2017-10-11T11:18:11Z" uid="592" user="JonS" changeset="52821220" lat="53.7967042" lon="-1.5407301">
    <tag k="addr:city" v="Leeds"/>
    <tag k="addr:housenumber" v="6"/>
    <tag k="addr:postcode" v="LS1 6DG"/>
    <tag k="addr:street" v="New Market Street"/>
    <tag k="amenity" v="cafe"/>
    <tag k="fhrs:id" v="319991"/>
    <tag k="name" v="Olympic"/>
  </node>
  <node id="2134260273" version="3" timestamp="2018-01-30T14:24:50Z" uid="592" user="JonS" changeset="55895677" lat="53.7967618" lon="-1.5339258">
    <tag k="addr:city" v="Leeds"/>
    <tag k="addr:housename" v="Munro House"/>
    <tag k="addr:postcode" v="LS9 8AG"/>
    <tag k="addr:street" v="Duke Street"/>
    <tag k="addr:unit" v="2b"/>
    <tag k="amenity" v="cafe"/>
    <tag k="fhrs:id" v="555762"/>
    <tag k="name" v="Cafe 164"/>
  </node>
  <node id="2134629661" version="1" timestamp="2013-01-30T09:11:03Z" uid="215129" user="inventor" changeset="14844681" lat="53.7912201" lon="-1.5523424">
    <tag k="name" v="Pickled Pepper"/>
    <tag k="amenity" v="cafe"/>
  </node>
  <node id="2134637002" version="2" timestamp="2017-10-13T13:06:11Z" uid="592" user="JonS" changeset="52892139" lat="53.7916891" lon="-1.5530881">
    <tag k="addr:city" v="Leeds"/>
    <tag k="addr:housenumber" v="109"/>
    <tag k="addr:postcode" v="LS11 5WD"/>
    <tag k="addr:street" v="Water Lane"/>
    <tag k="amenity" v="cafe"/>
    <tag k="fhrs:id" v="591803"/>
    <tag k="name" v="David Street Cafe"/>
  </node>
  <node id="2134871082" version="3" timestamp="2013-01-30T17:22:05Z" uid="215129" user="inventor" changeset="14850078" lat="53.7935428" lon="-1.5487252">
    <tag k="name" v="Out of the Woods"/>
    <tag k="amenity" v="cafe"/>
    <tag k="website" v="http://www.outofthewoods.me.uk"/>
  </node>
  <node id="2135006003" version="3" timestamp="2017-10-17T10:38:53Z" uid="592" user="JonS" changeset="53007498" lat="53.7913436" lon="-1.5475539">
    <tag k="addr:postcode" v="LS11 5BZ"/>
    <tag k="amenity" v="cafe"/>
    <tag k="cuisine" v="sandwich"/>
    <tag k="fhrs:id" v="322025"/>
    <tag k="name" v="Philpotts"/>
  </node>
  <node id="2135006317" version="2" timestamp="2017-10-17T10:38:54Z" uid="592" user="JonS" changeset="53007498" lat="53.7913341" lon="-1.5478248">
    <tag k="addr:postcode" v="LS11 5QS"/>
    <tag k="amenity" v="cafe"/>
    <tag k="cuisine" v="coffee_shop"/>
    <tag k="fhrs:id" v="868193"/>
    <tag k="name" v="Starbucks Coffee"/>
  </node>
  <node id="2135315776" version="2" timestamp="2018-02-05T17:40:30Z" uid="592" user="JonS" changeset="56091823" lat="53.7961175" lon="-1.5387858">
    <tag k="addr:city" v="Leeds"/>
    <tag k="addr:housenumber" v="90"/>
    <tag k="addr:postcode" v="LS2 7DJ"/>
    <tag k="addr:street" v="Kirkgate"/>
    <tag k="amenity" v="cafe"/>
    <tag k="name" v="Doghouse"/>
    <tag k="shop" v="music"/>
  </node>
  <node id="2135741093" version="2" timestamp="2017-10-17T10:38:54Z" uid="592" user="JonS" changeset="53007498" lat="53.7915908" lon="-1.548243">
    <tag k="addr:postcode" v="LS11 5QR"/>
    <tag k="amenity" v="cafe"/>
    <tag k="cuisine" v="sandwich"/>
    <tag k="fhrs:id" v="706375"/>
    <tag k="name" v="Panini Shack"/>
  </node>
  <node id="2136037367" version="2" timestamp="2017-10-17T10:38:55Z" uid="592" user="JonS" changeset="53007498" lat="53.7914028" lon="-1.5478616">
    <tag k="addr:postcode" v="LS11 5QS"/>
    <tag k="amenity" v="cafe"/>
    <tag k="fhrs:id" v="471144"/>
    <tag k="name" v="Juici Sushi"/>
  </node>
  <node id="2142071137" version="2" timestamp="2018-01-25T12:54:38Z" uid="592" user="JonS" changeset="55740054" lat="53.7900537" lon="-1.5233939">
    <tag k="addr:city" v="Leeds"/>
    <tag k="addr:housenumber" v="1"/>
    <tag k="addr:postcode" v="LS9 8LH"/>
    <tag k="addr:street" v="Easy Road"/>
    <tag k="amenity" v="cafe"/>
    <tag k="fhrs:id" v="855837"/>
    <tag k="name" v="The New Captain&apos;s Table"/>
  </node>
  <node id="2144729411" version="3" timestamp="2018-02-01T15:25:43Z" uid="592" user="JonS" changeset="55969037" lat="53.7978464" lon="-1.5477045">
    <tag k="addr:city" v="Leeds"/>
    <tag k="addr:housenumber" v="A 2"/>
    <tag k="addr:postcode" v="LS1 2JZ"/>
    <tag k="addr:street" v="Bond Court"/>
    <tag k="amenity" v="cafe"/>
    <tag k="fhrs:id" v="537118"/>
    <tag k="name" v="Costa Coffee"/>
  </node>
  <node id="2144729454" version="3" timestamp="2017-10-11T11:18:12Z" uid="592" user="JonS" changeset="52821220" lat="53.7993591" lon="-1.5417098">
    <tag k="addr:city" v="Leeds"/>
    <tag k="addr:housenumber" v="12"/>
    <tag k="addr:postcode" v="LS1 6NU"/>
    <tag k="addr:street" v="New Briggate"/>
    <tag k="amenity" v="cafe"/>
    <tag k="fhrs:id" v="471145"/>
    <tag k="name" v="San Co Co"/>
  </node>
  <node id="2144729463" version="2" timestamp="2017-09-12T15:45:57Z" uid="592" user="JonS" changeset="51977539" lat="53.7994033" lon="-1.5416847">
    <tag k="addr:city" v="Leeds"/>
    <tag k="addr:housenumber" v="14"/>
    <tag k="addr:street" v="New Briggate"/>
    <tag k="amenity" v="cafe"/>
    <tag k="name" v="Tavassolis"/>
    <tag k="shop" v="confectionery"/>
  </node>
  <node id="2157985590" version="5" timestamp="2017-10-11T11:18:12Z" uid="592" user="JonS" changeset="52821220" lat="53.7952673" lon="-1.5451618">
    <tag k="addr:city" v="Leeds"/>
    <tag k="addr:housenumber" v="16"/>
    <tag k="addr:postcode" v="LS1 5DL"/>
    <tag k="addr:street" v="New Station Street"/>
    <tag k="amenity" v="cafe"/>
    <tag k="cuisine" v="coffee_shop;breakfast"/>
    <tag k="fhrs:id" v="471140"/>
    <tag k="name" v="Laynes Espresso"/>
    <tag k="phone" v="+44 7828 823189"/>
    <tag k="website" v="www.laynesespresso.co.uk"/>
  </node>
  <node id="2157985612" version="3" timestamp="2017-10-16T13:25:05Z" uid="592" user="JonS" changeset="52982409" lat="53.7976436" lon="-1.5485593">
    <tag k="addr:city" v="Leeds"/>
    <tag k="addr:housenumber" v="10"/>
    <tag k="addr:postcode" v="LS1 2JP"/>
    <tag k="addr:street" v="Infirmary Street"/>
    <tag k="amenity" v="cafe"/>
    <tag k="fhrs:id" v="319865"/>
    <tag k="name" v="Pret A Manger"/>
  </node>
  <node id="2189771747" version="2" timestamp="2017-10-11T11:18:13Z" uid="592" user="JonS" changeset="52821220" lat="53.7965701" lon="-1.5411949">
    <tag k="addr:city" v="Leeds"/>
    <tag k="addr:housenumber" v="18"/>
    <tag k="addr:postcode" v="LS1 6DE"/>
    <tag k="addr:street" v="Central Road"/>
    <tag k="amenity" v="cafe"/>
    <tag k="cuisine" v="coffee_shop"/>
    <tag k="fhrs:id" v="537099"/>
    <tag k="name" v="Mrs Atha&apos;s"/>
    <tag k="source" v="survey"/>
    <tag k="website" v="http://mrsathas.com"/>
    <tag k="wifi" v="free"/>
  </node>
  <node id="2306312100" version="1" timestamp="2013-05-16T11:23:25Z" uid="45820" user="Paper" changeset="16151705" lat="53.8080686" lon="-1.5200157">
    <tag k="name" v="LIMM café"/>
    <tag k="amenity" v="cafe"/>
  </node>
  <node id="2734299592" version="3" timestamp="2018-01-30T14:56:53Z" uid="592" user="JonS" changeset="55896644" lat="53.796951" lon="-1.5556421">
    <tag k="addr:city" v="Leeds"/>
    <tag k="addr:housenumber" v="104"/>
    <tag k="addr:postcode" v="LS1 4LT"/>
    <tag k="addr:street" v="Wellington Street"/>
    <tag k="amenity" v="cafe"/>
    <tag k="cuisine" v="Sandwich,_Panini,_Wraps"/>
    <tag k="fhrs:id" v="323630"/>
    <tag k="internet_access" v="no"/>
    <tag k="name" v="Tasty Toastie"/>
  </node>
  <node id="2821074815" version="4" timestamp="2017-10-11T11:18:13Z" uid="592" user="JonS" changeset="52821220" lat="53.7958947" lon="-1.545224">
    <tag k="addr:city" v="Leeds"/>
    <tag k="addr:housenumber" v="55"/>
    <tag k="addr:postcode" v="LS1 5EL"/>
    <tag k="addr:street" v="Boar Lane"/>
    <tag k="amenity" v="cafe"/>
    <tag k="cuisine" v="Anglo–West_Indian"/>
    <tag k="fhrs:id" v="620734"/>
    <tag k="name" v="Hotel Chocolat"/>
    <tag k="website" v="http://www.hotelchocolat.com/uk/restaurants/locations/roast-and-conch"/>
  </node>
  <node id="2822958770" version="2" timestamp="2016-11-25T13:31:53Z" uid="516850" user="BuildTheRobots" changeset="43944413" lat="53.8119906" lon="-1.5168078">
    <tag k="name" v="Shine"/>
    <tag k="amenity" v="cafe"/>
    <tag k="fhrs:id" v="546094"/>
    <tag k="website" v="http://www.shinecollective.co.uk/"/>
    <tag k="addr:city" v="Leeds"/>
    <tag k="wheelchair" v="yes"/>
    <tag k="addr:street" v="Harehills Road"/>
    <tag k="addr:postcode" v="LS8 5HS"/>
    <tag k="internet_access" v="yes"/>
  </node>
  <node id="3187336469" version="3" timestamp="2016-11-25T13:31:54Z" uid="516850" user="BuildTheRobots" changeset="43944413" lat="53.8013931" lon="-1.5383417">
    <tag k="name" v="The Greedy Pig"/>
    <tag k="amenity" v="cafe"/>
    <tag k="cuisine" v="sandwich"/>
    <tag k="fhrs:id" v="323420"/>
    <tag k="addr:city" v="Leeds"/>
    <tag k="addr:street" v="North Street"/>
    <tag k="addr:postcode" v="LS2 7PN"/>
    <tag k="internet_access" v="no"/>
    <tag k="addr:housenumber" v="58"/>
  </node>
  <node id="3194894614" version="1" timestamp="2014-11-18T22:54:13Z" uid="2330" user="LeedsTracker" changeset="26876053" lat="53.8020301" lon="-1.5265893">
    <tag k="name" v="Lincoln Green Internet Cafe"/>
    <tag k="amenity" v="cafe"/>
    <tag k="internet_access" v="yes"/>
  </node>
  <node id="3286373979" version="4" timestamp="2018-03-21T15:40:12Z" uid="592" user="JonS" changeset="57390364" lat="53.7949147" lon="-1.5477769">
    <tag k="addr:city" v="Leeds"/>
    <tag k="addr:housename" v="City Station"/>
    <tag k="addr:postcode" v="LS1 4DT"/>
    <tag k="addr:street" v="New Station Street"/>
    <tag k="addr:unit" v="3 South Concourse"/>
    <tag k="amenity" v="cafe"/>
    <tag k="cuisine" v="coffee_shop"/>
    <tag k="fhrs:id" v="322933"/>
    <tag k="name" v="Caffè Ritazza"/>
  </node>
  <node id="3392490130" version="5" timestamp="2018-01-09T11:20:36Z" uid="519501" user="parukhin" changeset="55290134" lat="53.7988422" lon="-1.5427713">
    <tag k="addr:city" v="Leeds"/>
    <tag k="addr:housenumber" v="18"/>
    <tag k="addr:postcode" v="LS1 6LG"/>
    <tag k="addr:street" v="Swan Street"/>
    <tag k="amenity" v="cafe"/>
    <tag k="cuisine" v="Vegetarian_/_Vegan"/>
    <tag k="fhrs:id" v="495536"/>
    <tag k="internet_access" v="yes"/>
    <tag k="name" v="Global Tribe Cafe"/>
    <tag k="opening_hours" v="Mo-Fr 10:00-17:00; Sa 10:00-18:00 &quot; last food orders 5pm&quot;; Su 11:00-17:00 &quot;last food orders 4pm&quot;"/>
    <tag k="payment:bitcoin" v="yes"/>
    <tag k="smoking" v="no"/>
    <tag k="website" v="http://www.globaltribecafe.com/"/>
  </node>
  <node id="3584497285" version="2" timestamp="2016-07-07T12:59:57Z" uid="4172335" user="Betulyn" changeset="40540882" lat="53.806702" lon="-1.5535127">
    <tag k="name" v="Ziff Cafe"/>
    <tag k="amenity" v="cafe"/>
    <tag k="wheelchair" v="yes"/>
    <tag k="toilets:wheelchair" v="yes"/>
  </node>
  <node id="3585959697" version="2" timestamp="2018-01-30T14:56:54Z" uid="592" user="JonS" changeset="55896644" lat="53.797957" lon="-1.5478135">
    <tag k="addr:city" v="Leeds"/>
    <tag k="addr:housenumber" v="2"/>
    <tag k="addr:postcode" v="LS1 2JZ"/>
    <tag k="addr:street" v="Bond Court"/>
    <tag k="amenity" v="cafe"/>
    <tag k="cuisine" v="coffee_shop"/>
    <tag k="fhrs:id" v="732843"/>
    <tag k="name" v="La Bottega Milanese"/>
  </node>
  <node id="4243538412" version="2" timestamp="2018-02-19T15:31:57Z" uid="592" user="JonS" changeset="56495311" lat="53.802386" lon="-1.5439108">
    <tag k="addr:city" v="Leeds"/>
    <tag k="addr:housename" v="Merrion Centre"/>
    <tag k="addr:housenumber" v="88-90"/>
    <tag k="addr:postcode" v="LS2 8NG"/>
    <tag k="addr:street" v="Merrion Way"/>
    <tag k="amenity" v="cafe"/>
    <tag k="cuisine" v="coffee_shop"/>
    <tag k="name" v="Costa"/>
  </node>
  <node id="4377177479" version="2" timestamp="2017-10-16T13:25:06Z" uid="592" user="JonS" changeset="52982409" lat="53.796342" lon="-1.5526912">
    <tag k="addr:postcode" v="LS1 4DL"/>
    <tag k="amenity" v="cafe"/>
    <tag k="fhrs:id" v="916350"/>
    <tag k="name" v="Caffè Nero"/>
  </node>
  <node id="4484099890" version="4" timestamp="2018-01-24T12:51:37Z" uid="592" user="JonS" changeset="55711975" lat="53.7999243" lon="-1.5429848">
    <tag k="addr:city" v="Leeds"/>
    <tag k="addr:housename" v="Bradbury Building"/>
    <tag k="addr:postcode" v="LS2 8JA"/>
    <tag k="addr:street" v="Mark Lane"/>
    <tag k="amenity" v="cafe"/>
    <tag k="fhrs:id" v="319954"/>
    <tag k="name" v="Arch Cafe"/>
    <tag k="name:en" v="Arch Cafe"/>
    <tag k="phone" v="+44 113 389 3002"/>
    <tag k="website" v="http://www.thearchcafeleeds.co.uk/"/>
  </node>
  <node id="4484723955" version="2" timestamp="2018-02-07T11:40:37Z" uid="592" user="JonS" changeset="56146150" lat="53.7937682" lon="-1.5443019">
    <tag k="addr:city" v="Leeds"/>
    <tag k="addr:housename" v="Leeds Rail Station"/>
    <tag k="addr:postcode" v="LS1 4DT"/>
    <tag k="addr:street" v="New Station Street"/>
    <tag k="addr:unit" v="10 South Concourse"/>
    <tag k="amenity" v="cafe"/>
    <tag k="fhrs:id" v="877772"/>
    <tag k="name" v="Caffe Nero"/>
  </node>
  <node id="4486707296" version="3" timestamp="2018-01-25T12:54:39Z" uid="592" user="JonS" changeset="55740054" lat="53.796197" lon="-1.5323976">
    <tag k="addr:housenumber" v="59"/>
    <tag k="addr:postcode" v="LS9 8AB"/>
    <tag k="addr:street" v="Brussels Street"/>
    <tag k="amenity" v="cafe"/>
    <tag k="fhrs:id" v="953884"/>
    <tag k="name" v="Relish Food"/>
    <tag k="name:en" v="Relish Food"/>
    <tag k="phone" v="+44 113 243 3133"/>
    <tag k="website" v="http://relishfood.co.uk"/>
  </node>
  <node id="4562269590" version="2" timestamp="2018-01-22T13:18:05Z" uid="592" user="JonS" changeset="55654547" lat="53.7978841" lon="-1.5429607">
    <tag k="addr:city" v="Leeds"/>
    <tag k="addr:housenumber" v="12a"/>
    <tag k="addr:postcode" v="LS1 6JS"/>
    <tag k="addr:street" v="Albion Place"/>
    <tag k="amenity" v="cafe"/>
    <tag k="fhrs:id" v="319510"/>
    <tag k="name" v="Costa"/>
    <tag k="name:en" v="Costa"/>
  </node>
  <node id="4625665391" version="2" timestamp="2017-06-16T14:35:35Z" uid="1802093" user="Paul Berry" changeset="49593430" lat="53.7972112" lon="-1.5535546">
    <tag k="amenity" v="cafe"/>
    <tag k="internet_access" v="wlan"/>
    <tag k="internet_access:fee" v="no"/>
    <tag k="name" v="Cielo Coffee House"/>
    <tag k="outdoor_seating" v="no"/>
  </node>
  <node id="4689296893" version="3" timestamp="2018-02-10T09:05:56Z" uid="101150" user="Steeley" changeset="56236266" lat="53.79772" lon="-1.5433727">
    <tag k="addr:housenumber" v="26"/>
    <tag k="addr:postcode" v="LS1 6JS"/>
    <tag k="addr:street" v="Albion Place"/>
    <tag k="amenity" v="cafe"/>
    <tag k="cuisine" v="italian;pasta;pizza;coffee_shop"/>
    <tag k="fhrs:id" v="853271"/>
    <tag k="name" v="Pasta Romagna"/>
    <tag k="phone" v="+44 113 245 1569"/>
  </node>
  <node id="5030401550" version="2" timestamp="2018-02-01T17:01:04Z" uid="592" user="JonS" changeset="55971486" lat="53.8070077" lon="-1.5518264">
    <tag k="addr:city" v="Leeds"/>
    <tag k="addr:housenumber" v="181"/>
    <tag k="addr:postcode" v="LS2 3AR"/>
    <tag k="addr:street" v="Woodhouse Lane"/>
    <tag k="amenity" v="cafe"/>
    <tag k="fhrs:id" v="812315"/>
    <tag k="name" v="Cafe Nero"/>
  </node>
  <node id="5089211257" version="1" timestamp="2017-09-08T16:25:05Z" uid="692697" user="opopop" changeset="51851510" lat="53.8061019" lon="-1.5544148">
    <tag k="amenity" v="cafe"/>
    <tag k="cuisine" v="coffee_shop;vegan;lunch;breakfast"/>
    <tag k="name" v="The Edit Room"/>
    <tag k="opening_hours" v="Mo-Fr 08:00-17:00"/>
  </node>
  <node id="5135846428" version="3" timestamp="2018-03-16T11:51:55Z" uid="592" user="JonS" changeset="57239365" lat="53.7989515" lon="-1.545315">
    <tag k="addr:city" v="Leeds"/>
    <tag k="addr:housenumber" v="93-97"/>
    <tag k="addr:postcode" v="LS1 5AP"/>
    <tag k="addr:street" v="Albion Street"/>
    <tag k="amenity" v="cafe"/>
    <tag k="cuisine" v="coffee_shop"/>
    <tag k="internet_access" v="yes"/>
  </node>
  <node id="5242842821" version="2" timestamp="2017-11-30T20:47:04Z" uid="84263" user="Robert Whittaker" changeset="54216275" lat="53.7954721" lon="-1.5549529">
    <tag k="addr:housenumber" v="5"/>
    <tag k="addr:postcode" v="LS1 4AP"/>
    <tag k="addr:street" v="Wellington Place"/>
    <tag k="amenity" v="cafe"/>
    <tag k="cuisine" v="italian"/>
    <tag k="name" v="Veeno - The Italian Wine Cafe"/>
    <tag k="phone" v="01132470698"/>
  </node>
  <node id="5328863274" version="2" timestamp="2018-01-09T08:27:41Z" uid="5313154" user="Captain Oates" changeset="55286123" lat="53.7986605" lon="-1.5427861">
    <tag k="addr:city" v="Leeds"/>
    <tag k="addr:housenumber" v="15"/>
    <tag k="addr:postcode" v="LS1 6LQ"/>
    <tag k="addr:street" v="Thornton&apos;s Arcade"/>
    <tag k="amenity" v="cafe"/>
    <tag k="cuisine" v="coffee_shop"/>
    <tag k="fhrs:id" v="1002987"/>
    <tag k="internet_access" v="wlan"/>
    <tag k="name" v="Kapow Coffee"/>
    <tag k="opening_hours" v="Mo-Sa 08:00-18:00, Su 10:00-17:00"/>
    <tag k="website" v="https://en-gb.facebook.com/kapowcoffee/"/>
  </node>
  <node id="5358898093" version="1" timestamp="2018-01-24T12:51:32Z" uid="592" user="JonS" changeset="55711975" lat="53.7961787" lon="-1.5437669">
    <tag k="addr:city" v="Leeds"/>
    <tag k="addr:housename" v="Holy Trinity Church"/>
    <tag k="addr:postcode" v="LS1 6HW"/>
    <tag k="addr:street" v="Boar Lane"/>
    <tag k="amenity" v="cafe"/>
    <tag k="fhrs:id" v="564077"/>
    <tag k="name" v="Nurture Cafe"/>
  </node>
  <node id="5370311619" version="2" timestamp="2018-02-20T12:34:26Z" uid="592" user="JonS" changeset="56519405" lat="53.7972857" lon="-1.5415214">
    <tag k="addr:city" v="Leeds"/>
    <tag k="addr:housenumber" v="8-9"/>
    <tag k="addr:postcode" v="LS1 6BZ"/>
    <tag k="addr:street" v="Kirkgate"/>
    <tag k="amenity" v="cafe"/>
    <tag k="fhrs:id" v="1025743"/>
    <tag k="name" v="Kitty Cafe"/>
  </node>
  <node id="5370588766" version="1" timestamp="2018-01-29T15:59:45Z" uid="592" user="JonS" changeset="55864010" lat="53.8009993" lon="-1.5446493">
    <tag k="addr:city" v="Leeds"/>
    <tag k="addr:housenumber" v="92"/>
    <tag k="addr:postcode" v="LS2 8LW"/>
    <tag k="addr:street" v="Merrion Street"/>
    <tag k="amenity" v="cafe"/>
    <tag k="fhrs:id" v="868196"/>
    <tag k="name" v="Dunkin Donuts"/>
  </node>
  <node id="5370588767" version="1" timestamp="2018-01-29T15:59:46Z" uid="592" user="JonS" changeset="55864010" lat="53.7975158" lon="-1.5361775">
    <tag k="addr:city" v="Leeds"/>
    <tag k="addr:housename" v="National Express Coach Station"/>
    <tag k="addr:postcode" v="LS2 7LA"/>
    <tag k="addr:street" v="Dyer Street"/>
    <tag k="amenity" v="cafe"/>
    <tag k="fhrs:id" v="322404"/>
    <tag k="name" v="Pumpkin"/>
  </node>
  <node id="5372669214" version="2" timestamp="2018-03-11T21:14:38Z" uid="5313154" user="Captain Oates" changeset="57093691" lat="53.7994444" lon="-1.5468872">
    <tag k="addr:city" v="Leeds"/>
    <tag k="addr:housename" v="St. Andrews House"/>
    <tag k="addr:housenumber" v="119-121"/>
    <tag k="addr:postcode" v="LS1 5HF"/>
    <tag k="addr:street" v="The Headrow"/>
    <tag k="amenity" v="cafe"/>
    <tag k="fhrs:id" v="320225"/>
    <tag k="internet_access" v="wlan"/>
    <tag k="name" v="Caffe Nero"/>
    <tag k="note" v="Staff said postcode is LS1 5HF, but see https://www.ukpostcodecheck.com/address/88104cf8/caffe-nero_st.-andrews-house-119-121_the-headrow_leeds_ls1-5tu"/>
    <tag k="opening_hours" v="Mo-Fr 06:30-19:00; Sa 07:30-19:00; Su 08:00-18:00"/>
    <tag k="phone" v="+44 113 242 9424"/>
    <tag k="smoking" v="no"/>
    <tag k="website" v="https://caffenero.com/uk/en/stores/?store=leeds-park-row"/>
  </node>
  <node id="5403170377" version="1" timestamp="2018-02-10T09:05:56Z" uid="101150" user="Steeley" changeset="56236266" lat="53.7977194" lon="-1.5431913">
    <tag k="amenity" v="cafe"/>
    <tag k="name" v="Distinto"/>
  </node>
  <node id="5403170378" version="1" timestamp="2018-02-10T09:05:56Z" uid="101150" user="Steeley" changeset="56236266" lat="53.7976967" lon="-1.5427634">
    <tag k="amenity" v="cafe"/>
    <tag k="name" v="Caffè Nero"/>
  </node>
  <node id="5422663140" version="2" timestamp="2018-02-20T12:34:26Z" uid="592" user="JonS" changeset="56519405" lat="53.8015086" lon="-1.5440807">
    <tag k="addr:city" v="Leeds"/>
    <tag k="addr:housename" v="The Merrion Centre"/>
    <tag k="addr:postcode" v="LS2 8NG"/>
    <tag k="addr:unit" v="28"/>
    <tag k="amenity" v="cafe"/>
    <tag k="fhrs:id" v="323330"/>
    <tag k="name" v="Shake Bar"/>
    <tag k="website" v="https://theshakebar.com/"/>
  </node>
  <node id="5440514701" version="1" timestamp="2018-02-27T16:38:08Z" uid="592" user="JonS" changeset="56727931" lat="53.8086197" lon="-1.5320912">
    <tag k="addr:city" v="Leeds"/>
    <tag k="addr:housenumber" v="26"/>
    <tag k="addr:postcode" v="LS7 1AB"/>
    <tag k="addr:street" v="Roundhay Road"/>
    <tag k="addr:unit" v="A1"/>
    <tag k="amenity" v="cafe"/>
    <tag k="fhrs:id" v="776220"/>
    <tag k="name" v="Cafe Leep"/>
  </node>
  <node id="5448637031" version="1" timestamp="2018-03-02T16:57:21Z" uid="592" user="JonS" changeset="56826060" lat="53.7865262" lon="-1.5381805">
    <tag k="addr:city" v="Leeds"/>
    <tag k="addr:housename" v="Leathley House"/>
    <tag k="addr:postcode" v="LS10 1AW"/>
    <tag k="addr:street" v="Butterley Street"/>
    <tag k="addr:suburb" v="Hunslet"/>
    <tag k="amenity" v="cafe"/>
    <tag k="delivery" v="yes"/>
    <tag k="fhrs:id" v="321084"/>
    <tag k="name" v="Annas Snack Bar"/>
    <tag k="takeaway" v="yes"/>
  </node>
  <node id="5457251546" version="1" timestamp="2018-03-05T16:28:36Z" uid="592" user="JonS" changeset="56908457" lat="53.7941757" lon="-1.5180518">
    <tag k="addr:city" v="Leeds"/>
    <tag k="addr:housenumber" v="5"/>
    <tag k="addr:postcode" v="LS9 9JD"/>
    <tag k="addr:street" v="East Park Road"/>
    <tag k="addr:suburb" v="Burmantofts"/>
    <tag k="amenity" v="cafe"/>
    <tag k="fhrs:id" v="729595"/>
    <tag k="name" v="Wezy&apos;s"/>
  </node>
  <node id="5457251557" version="1" timestamp="2018-03-05T16:28:38Z" uid="592" user="JonS" changeset="56908457" lat="53.7996006" lon="-1.5059249">
    <tag k="addr:city" v="Leeds"/>
    <tag k="addr:housenumber" v="330"/>
    <tag k="addr:postcode" v="LS9 9DN"/>
    <tag k="addr:street" v="York Road"/>
    <tag k="amenity" v="cafe"/>
    <tag k="fhrs:id" v="726329"/>
    <tag k="name" v="Hungry Harry&apos;s"/>
  </node>
  <node id="5462715921" version="1" timestamp="2018-03-07T17:55:50Z" uid="592" user="JonS" changeset="56976457" lat="53.8064859" lon="-1.5112069">
    <tag k="addr:city" v="Leeds"/>
    <tag k="addr:housenumber" v="1"/>
    <tag k="addr:postcode" v="LS9 6DR"/>
    <tag k="addr:street" v="Sutherland Terrace"/>
    <tag k="addr:suburb" v="Burmantofts"/>
    <tag k="amenity" v="cafe"/>
    <tag k="fhrs:id" v="321259"/>
    <tag k="name" v="The Filling Station Cafe"/>
  </node>
  <node id="5462715924" version="1" timestamp="2018-03-07T17:55:51Z" uid="592" user="JonS" changeset="56976457" lat="53.8088367" lon="-1.5079379">
    <tag k="addr:city" v="Leeds"/>
    <tag k="addr:housenumber" v="8"/>
    <tag k="addr:postcode" v="LS9 6AR"/>
    <tag k="addr:street" v="Bellbrooke Place"/>
    <tag k="addr:suburb" v="Burmantofts"/>
    <tag k="amenity" v="cafe"/>
    <tag k="fhrs:id" v="504550"/>
    <tag k="name" v="Bellbrooke Cafe"/>
  </node>
  <node id="5462715925" version="1" timestamp="2018-03-07T17:55:51Z" uid="592" user="JonS" changeset="56976457" lat="53.8081216" lon="-1.5077441">
    <tag k="addr:city" v="Leeds"/>
    <tag k="addr:housenumber" v="409"/>
    <tag k="addr:postcode" v="LS9 6AP"/>
    <tag k="addr:street" v="Harehills Lane"/>
    <tag k="addr:suburb" v="Harehills"/>
    <tag k="amenity" v="cafe"/>
    <tag k="fhrs:id" v="319812"/>
    <tag k="name" v="Meeting Point Cafe"/>
  </node>
  <node id="5462715984" version="1" timestamp="2018-03-07T17:55:58Z" uid="592" user="JonS" changeset="56976457" lat="53.8112392" lon="-1.5174678">
    <tag k="addr:city" v="Leeds"/>
    <tag k="addr:housenumber" v="52d"/>
    <tag k="addr:postcode" v="LS8 5PB"/>
    <tag k="addr:street" v="Harehills Road"/>
    <tag k="addr:suburb" v="Harehills"/>
    <tag k="amenity" v="cafe"/>
    <tag k="fhrs:id" v="990864"/>
    <tag k="name" v="Deli Delight"/>
  </node>
  <node id="5465080575" version="1" timestamp="2018-03-08T17:58:48Z" uid="592" user="JonS" changeset="57008042" lat="53.8087781" lon="-1.5164137">
    <tag k="addr:city" v="Leeds"/>
    <tag k="addr:housenumber" v="1"/>
    <tag k="addr:postcode" v="LS9 7AB"/>
    <tag k="addr:street" v="Ashley Road"/>
    <tag k="addr:suburb" v="Harehills"/>
    <tag k="amenity" v="cafe"/>
    <tag k="fhrs:id" v="1018072"/>
    <tag k="name" v="Family Internet Cafe"/>
  </node>
  <node id="5465080576" version="1" timestamp="2018-03-08T17:58:48Z" uid="592" user="JonS" changeset="57008042" lat="53.8091677" lon="-1.5149479">
    <tag k="addr:city" v="Leeds"/>
    <tag k="addr:housenumber" v="12"/>
    <tag k="addr:postcode" v="LS9 7AB"/>
    <tag k="addr:street" v="Ashley Road"/>
    <tag k="addr:suburb" v="Harehills"/>
    <tag k="amenity" v="cafe"/>
    <tag k="fhrs:id" v="1007011"/>
    <tag k="name" v="Abyssinia Cafe And Restaurant"/>
  </node>
  <node id="5465080583" version="2" timestamp="2018-03-09T12:16:19Z" uid="592" user="JonS" changeset="57030612" lat="53.8089951" lon="-1.5167905">
    <tag k="addr:city" v="Leeds"/>
    <tag k="addr:housenumber" v="135"/>
    <tag k="addr:postcode" v="LS8 5BW"/>
    <tag k="addr:street" v="Harehills Road"/>
    <tag k="addr:suburb" v="Harehills"/>
    <tag k="amenity" v="cafe"/>
    <tag k="fhrs:id" v="729572"/>
    <tag k="name" v="Salam Internet Cafe"/>
  </node>
  <node id="5467127555" version="1" timestamp="2018-03-09T12:16:16Z" uid="592" user="JonS" changeset="57030612" lat="53.7928599" lon="-1.5230079">
    <tag k="addr:city" v="Leeds"/>
    <tag k="addr:housenumber" v="9b"/>
    <tag k="addr:postcode" v="LS9 8RZ"/>
    <tag k="addr:street" v="Upper Accommodation Road"/>
    <tag k="addr:suburb" v="Cross Green"/>
    <tag k="amenity" v="cafe"/>
    <tag k="delivery" v="yes"/>
    <tag k="fhrs:id" v="699367"/>
    <tag k="name" v="Rumbling Tum Cafe"/>
    <tag k="takeaway" v="yes"/>
  </node>
  <node id="5467127562" version="1" timestamp="2018-03-09T12:16:17Z" uid="592" user="JonS" changeset="57030612" lat="53.7904416" lon="-1.5217808">
    <tag k="addr:city" v="Leeds"/>
    <tag k="addr:housenumber" v="2b"/>
    <tag k="addr:postcode" v="LS9 0AZ"/>
    <tag k="addr:street" v="Easy Road"/>
    <tag k="addr:suburb" v="Cross Green"/>
    <tag k="amenity" v="cafe"/>
    <tag k="fhrs:id" v="839665"/>
    <tag k="name" v="Tomato Dip"/>
    <tag k="takeaway" v="yes"/>
  </node>
  <node id="5467127565" version="1" timestamp="2018-03-09T12:16:17Z" uid="592" user="JonS" changeset="57030612" lat="53.7912988" lon="-1.5191683">
    <tag k="addr:city" v="Leeds"/>
    <tag k="addr:housenumber" v="67-69"/>
    <tag k="addr:postcode" v="LS9 8QS"/>
    <tag k="addr:street" v="Easy Road"/>
    <tag k="addr:suburb" v="Cross Green"/>
    <tag k="amenity" v="cafe"/>
    <tag k="fhrs:id" v="323139"/>
    <tag k="name" v="Early Bird Cafe"/>
  </node>
  <node id="5467127569" version="1" timestamp="2018-03-09T12:16:18Z" uid="592" user="JonS" changeset="57030612" lat="53.7913503" lon="-1.5149707">
    <tag k="addr:city" v="Leeds"/>
    <tag k="addr:housenumber" v="80"/>
    <tag k="addr:postcode" v="LS9 0AB"/>
    <tag k="addr:street" v="Easy Road"/>
    <tag k="addr:suburb" v="Cross Green"/>
    <tag k="amenity" v="cafe"/>
    <tag k="fhrs:id" v="837988"/>
    <tag k="name" v="Maes"/>
    <tag k="takeaway" v="yes"/>
  </node>
  <node id="5491637288" version="1" timestamp="2018-03-20T16:17:28Z" uid="592" user="JonS" changeset="57358079" lat="53.7953881" lon="-1.5475246">
    <tag k="addr:city" v="Leeds"/>
    <tag k="addr:postcode" v="LS1 4DY"/>
    <tag k="addr:street" v="New Station Street"/>
    <tag k="amenity" v="cafe"/>
    <tag k="fhrs:id" v="877764"/>
    <tag k="name" v="Pret A Manger"/>
  </node>
  <node id="5491637320" version="1" timestamp="2018-03-20T16:17:34Z" uid="592" user="JonS" changeset="57358079" lat="53.8084106" lon="-1.5516552">
    <tag k="addr:city" v="Leeds"/>
    <tag k="addr:housenumber" v="10"/>
    <tag k="addr:postcode" v="LS2 9AQ"/>
    <tag k="addr:street" v="Blenheim Walk"/>
    <tag k="addr:suburb" v="Woodhouse"/>
    <tag k="amenity" v="cafe"/>
    <tag k="fhrs:id" v="931769"/>
    <tag k="name" v="The Smoothie Company"/>
    <tag k="takeaway" v="yes"/>
  </node>
</osm>
